ID|LABEL|CITY|COUNTRY|POSTALCODE_PLUS4|STATE_ABBR|STREET_ADDRESS
XL_0|attorney_location|Port Theresaville|USA|59076-9746|ND|7895 Robert Center Apt. 592
XL_1|attorney_location|Port Connie|USA|89131-5755|OH|594 Hamilton Station
XL_2|attorney_location|Lake Sarah|USA|63066-4502|DC|72336 Holloway Parks
XL_3|attorney_location|Fieldsstad|USA|31189-5185|NM|9054 Renee Cape Suite 593
XL_4|attorney_location|Port Sara|USA|51424-7619|HI|7127 Hood Mission
XL_5|attorney_location|Port Nancy|USA|62995-5485|KY|7201 Melissa Freeway
XL_6|attorney_location|South Shawn|USA|05075-8809|MO|88604 Gates Cliffs
XL_7|attorney_location|Michaeltown|USA|69560-0750|NM|498 Robinson Mission Suite 864
XL_8|attorney_location|East Robert|USA|66314-8386|OK|23852 Gonzalez Shore Suite 105
XL_9|attorney_location|Port Crystal|USA|29404-1087|WY|34743 Christopher Mills Suite 280
XL_10|attorney_location|Aaronport|USA|18724-5734|CT|03709 Stephen Field Apt. 549
XL_11|attorney_location|South Mariamouth|USA|56893-7672|WA|82256 Gibbs Ville
XL_12|attorney_location|West Traviston|USA|68423-6187|RI|34708 Joseph Centers
XL_13|attorney_location|South Jeremy|USA|43148-5403|CA|1634 Gina Trafficway Suite 234
XL_14|attorney_location|Floresmouth|USA|62349-4132|NY|5612 Ortega Crescent Suite 285
XL_15|attorney_location|Port Molly|USA|87986-7097|OH|2158 Robert Hills Suite 570
XL_16|attorney_location|Lake Kimberly|USA|76687-8958|WA|7964 Benjamin Radial
XL_17|attorney_location|New Christopherborough|USA|41540-9835|RI|84190 Aaron Divide
XL_18|attorney_location|New Carol|USA|74912-0995|VA|481 David Rue Apt. 643
XL_19|attorney_location|Hendersonburgh|USA|09482-7431|OK|4084 Jason Skyway Suite 204
XL_20|attorney_location|West Georgemouth|USA|32809-0798|DE|53507 Angela Parks
XL_21|attorney_location|Fowlerchester|USA|71314-9432|NE|92822 Stanley Terrace Apt. 115
XL_22|attorney_location|North Kristenville|USA|28220-3545|NE|4431 Sabrina Island Apt. 740
XL_23|attorney_location|Zacharyshire|USA|84181-2798|AL|25311 Martinez Village Apt. 888
XL_24|attorney_location|Kendrabury|USA|06528-1009|MI|66705 Russell Pass Suite 559
XL_25|attorney_location|Rodriguezport|USA|78589-7838|ID|0921 Gonzales Fort
XL_26|attorney_location|Port Amanda|USA|04018-9467|NE|27842 Weaver Shores
XL_27|attorney_location|Langbury|USA|64885-1305|ME|48126 Bradley Union
XL_28|attorney_location|South Brandonburgh|USA|87944-5275|RI|4423 Mcintosh Springs Apt. 247
XL_29|attorney_location|Pearsonside|USA|40302-8770|NV|6611 Chambers Walks
XL_30|attorney_location|Parkmouth|USA|25374-7594|TN|64678 Williams Square Apt. 657
XL_31|attorney_location|Port Sheilaview|USA|25452-0010|CO|020 Mark Hill Suite 226
XL_32|attorney_location|Thomasmouth|USA|77782-9759|GA|293 Teresa Glens Apt. 152
XL_33|attorney_location|West Michelleville|USA|20633-1320|MT|2834 Estrada Parks
XL_34|attorney_location|Port Charlestown|USA|38161-7893|NH|22797 Kathryn Vista Apt. 515
XL_35|attorney_location|West Caitlin|USA|30757-3242|MO|877 Ashley Run Apt. 015
XL_36|attorney_location|Lake Ashleyview|USA|37514-2901|NJ|87698 Thomas Stream
XL_37|attorney_location|Patriciamouth|USA|89870-1248|WV|89053 Patricia Village
XL_38|attorney_location|Lake Alison|USA|81500-1059|ND|72780 Jerome Park
XL_39|attorney_location|West Michael|USA|91119-3699|KS|3362 Fernandez Place Apt. 336
XL_40|attorney_location|Benjaminfurt|USA|85292-4515|ME|281 Hall Union Suite 585
XL_41|attorney_location|Port Brian|USA|23334-5114|GA|617 Garcia Island Apt. 751
XL_42|attorney_location|Mckeeton|USA|68689-5737|NV|666 Jessica Plaza Suite 094
XL_43|attorney_location|Bowmanchester|USA|67568-8675|NM|156 Shelby Tunnel
XL_44|attorney_location|New Richard|USA|56195-0257|PA|162 Cooley Hollow Suite 797
XL_45|attorney_location|Meganborough|USA|52643-5998|ME|4625 Ramos Via
XL_46|attorney_location|North Phillip|USA|75941-2933|NV|5344 Miller Groves
XL_47|attorney_location|Christopherstad|USA|60136-0225|CO|7229 Martha Ways Suite 994
XL_48|attorney_location|Coxmouth|USA|98342-1412|AZ|92312 Nicholas Wells
XL_49|attorney_location|Hallbury|USA|21544-3165|FL|45212 Michael Ramp Suite 962
